NORAD_CAT_ID,OBJECT_NAME,OBJECT_TYPE,EPOCH,MEAN_MOTION,ECCENTRICITY,INCLINATION,RA_OF_ASC_NODE,ARG_OF_PERICENTER,MEAN_ANOMALY,BSTAR,MEAN_MOTION_DOT,MEAN_MOTION_DDOT,TLE_LINE0,TLE_LINE1,TLE_LINE2,SEMIMAJOR_AXIS,PERIOD,APOGEE,PERIGEE,DECAYED
51812.0,STARLINK-3610,PAYLOAD,2024-07-28 23:03:48,15.08837901,0.0001491,53.216,92.0317,103.6601,256.4558,6.1755e-05,6.95e-06,0.0,0 STARLINK-3610,1 51812U 22017AW  24210.96097318  .00000695  00000-0  61755-4 0  9999,2 51812  53.2160  92.0317 0001491 103.6601 256.4558 15.08837901135208,6917.887,95.438,540.783,538.72,0.0
51812.0,STARLINK-3610,PAYLOAD,2024-07-29 08:36:06,15.08834821,0.0001626,53.2168,90.2449,97.7254,262.3923,0.0001464,2.042e-05,0.0,0 STARLINK-3610,1 51812U 22017AW  24211.35841153  .00002042  00000-0  14640-3 0  9995,2 51812  53.2168  90.2449 0001626  97.7254 262.3923 15.08834821135265,6917.896,95.438,540.886,538.636,0.0
51812.0,STARLINK-3610,PAYLOAD,2024-07-29 22:54:35,15.08837212,0.0001728,53.2175,87.5708,102.5834,257.5351,0.00014802,2.068e-05,0.0,0 STARLINK-3610,1 51812U 22017AW  24211.95457373  .00002068  00000-0  14802-3 0  9996,2 51812  53.2175  87.5708 0001728 102.5834 257.5351 15.08837212135350,6917.889,95.438,540.949,538.558,0.0
51812.0,STARLINK-3610,PAYLOAD,2024-07-30 08:26:54,15.08830953,0.0001728,53.2176,85.7867,95.6866,264.4323,0.00013928,1.929e-05,0.0,0 STARLINK-3610,1 51812U 22017AW  24212.35201993  .00001929  00000-0  13928-3 0  9999,2 51812  53.2176  85.7867 0001728  95.6866 264.4323 15.08830953135535,6917.908,95.438,540.968,538.578,0.0
51812.0,STARLINK-3610,PAYLOAD,2024-07-30 16:23:49,15.0884246,0.0001715,53.2173,84.2992,101.9624,258.156,0.000101,1.32e-05,0.0,0 STARLINK-3610,1 51812U 22017AW  24212.68321339  .00001320  00000-0  10100-3 0  9996,2 51812  53.2173  84.2992 0001715 101.9624 258.1560 15.08842460135588,6917.873,95.437,540.924,538.551,0.0
51812.0,STARLINK-3610,PAYLOAD,2024-07-30 22:45:21,15.08853192,0.0002009,53.2173,83.1101,105.6702,254.4512,3.8752e-05,3.29e-06,0.0,0 STARLINK-3610,1 51812U 22017AW  24212.94816782  .00000329  00000-0  38752-4 0  9998,2 51812  53.2173  83.1101 0002009 105.6702 254.4512 15.08853192135505,6917.84,95.437,541.095,538.315,0.0
51812.0,STARLINK-3610,PAYLOAD,2024-07-31 19:25:23,15.08832671,0.0001306,53.2164,79.2406,84.4348,275.6793,2.6028e-06,-2.46e-06,0.0,0 STARLINK-3610,1 51812U 22017AW  24213.80930216 -.00000246  00000-0  26028-5 0  9996,2 51812  53.2164  79.2406 0001306  84.4348 275.6793 15.08832671135750,6917.903,95.438,540.671,538.864,0.0
51812.0,STARLINK-3610,PAYLOAD,2024-07-31 22:36:09,15.08836072,0.0001298,53.2167,78.6468,94.4828,265.6313,-2.4743e-05,-6.82e-06,0.0,0 STARLINK-3610,1 51812U 22017AW  24213.94178143 -.00000682  00000-0 -24743-4 0  9990,2 51812  53.2167  78.6468 0001298  94.4828 265.6313 15.08836072135653,6917.892,95.438,540.655,538.859,0.0
51812.0,STARLINK-3610,PAYLOAD,2024-08-01 20:51:32,15.08853021,0.0001455,53.2162,74.4822,64.6895,295.4248,6.6627e-05,7.73e-06,0.0,0 STARLINK-3610,1 51812U 22017AW  24214.86912595  .00000773  00000-0  66627-4 0  9995,2 51812  53.2162  74.4822 0001455  64.6895 295.4248 15.08853021135914,6917.841,95.437,540.712,538.699,0.0
51812.0,STARLINK-3610,PAYLOAD,2024-08-01 22:26:54,15.08865257,0.0001122,53.2167,74.186,81.2059,278.906,0.00017969,2.575e-05,0.0,0 STARLINK-3610,1 51812U 22017AW  24214.93535477  .00002575  00000-0  17969-3 0  9999,2 51812  53.2167  74.1860 0001122  81.2059 278.9060 15.08865257135806,6917.803,95.436,540.444,538.892,0.0
51812.0,STARLINK-3610,PAYLOAD,2024-08-02 07:59:14,15.08839325,0.0001189,53.2167,72.4009,80.0585,280.0541,0.00011872,1.602e-05,0.0,0 STARLINK-3610,1 51812U 22017AW  24215.33281153  .00001602  00000-0  11872-3 0  9990,2 51812  53.2167  72.4009 0001189  80.0585 280.0541 15.08839325135980,6917.882,95.438,540.57,538.925,0.0
51812.0,STARLINK-3610,PAYLOAD,2024-08-02 14:20:48,15.08832372,0.0001571,53.2156,71.2131,93.6214,266.4957,-1.9184e-05,-5.93e-06,0.0,0 STARLINK-3610,1 51812U 22017AW  24215.59778288 -.00000593  00000-0 -19184-4 0  9993,2 51812  53.2156  71.2131 0001571  93.6214 266.4957 15.08832372135901,6917.904,95.438,540.856,538.682,0.0
51812.0,STARLINK-3610,PAYLOAD,2024-08-02 20:42:21,15.08826345,0.0001072,53.2152,70.0229,106.8932,253.2177,-5.866e-05,-1.221e-05,0.0,0 STARLINK-3610,1 51812U 22017AW  24215.86274796 -.00001221  00000-0 -58660-4 0  9999,2 51812  53.2152  70.0229 0001072 106.8932 253.2177 15.08826345136061,6917.922,95.438,540.529,539.046,0.0
51812.0,STARLINK-3610,PAYLOAD,2024-08-03 07:50:02,15.08840905,0.0001464,53.2176,67.9391,86.0476,274.0683,1.5547e-05,-4.1e-07,0.0,0 STARLINK-3610,1 51812U 22017AW  24216.32642007 -.00000041  00000-0  15547-4 0  9990,2 51812  53.2176  67.9391 0001464  86.0476 274.0683 15.08840905136138,6917.878,95.437,540.755,538.73,0.0
51812.0,STARLINK-3610,PAYLOAD,2024-08-03 20:33:06,15.08859198,0.0001467,53.2162,65.5596,87.1768,272.9392,0.0001581,2.23e-05,0.0,0 STARLINK-3610,1 51812U 22017AW  24216.85632888  .00002230  00000-0  15810-3 0  9997,2 51812  53.2162  65.5596 0001467  87.1768 272.9392 15.08859198136210,6917.822,95.436,540.702,538.672,0.0
51812.0,STARLINK-3610,PAYLOAD,2024-08-03 23:43:52,15.08863683,0.0001425,53.2162,64.9646,100.1339,259.9814,0.00024386,3.598e-05,0.0,0 STARLINK-3610,1 51812U 22017AW  24216.98880594  .00003598  00000-0  24386-3 0  9996,2 51812  53.2162  64.9646 0001425 100.1339 259.9814 15.08863683136110,6917.808,95.436,540.659,538.687,0.0
51812.0,STARLINK-3610,PAYLOAD,2024-08-04 20:23:54,15.08864272,0.0001502,53.2161,61.0986,95.4556,264.6608,0.00063136,9.781e-05,0.0,0 STARLINK-3610,1 51812U 22017AW  24217.84993068  .00009781  00000-0  63136-3 0  9999,2 51812  53.2161  61.0986 0001502  95.4556 264.6608 15.08864272136363,6917.806,95.436,540.71,538.632,0.0
51812.0,STARLINK-3610,PAYLOAD,2024-08-04 23:34:40,15.0887521,0.0001459,53.2161,60.504,95.3486,264.7673,0.00098617,0.00015457,0.0,0 STARLINK-3610,1 51812U 22017AW  24217.98240742  .00015457  00000-0  98617-3 0  9997,2 51812  53.2161  60.5040 0001459  95.3486 264.7673 15.08875210136389,6917.773,95.435,540.647,538.628,0.0
51812.0,STARLINK-3610,PAYLOAD,2024-08-05 20:14:42,15.08819759,0.0001432,53.2163,56.6361,89.1584,270.9572,0.00012951,1.773e-05,0.0,0 STARLINK-3610,1 51812U 22017AW  24218.84354512  .00001773  00000-0  12951-3 0  9997,2 51812  53.2163  56.6361 0001432  89.1584 270.9572 15.08819759136512,6917.942,95.439,540.798,538.817,0.0
51812.0,STARLINK-3610,PAYLOAD,2024-08-06 12:08:33,15.08835825,0.0001389,53.2164,53.6645,73.9742,286.1403,0.00043606,6.658e-05,0.0,0 STARLINK-3610,1 51812U 22017AW  24219.50594888  .00006658  00000-0  43606-3 0  9991,2 51812  53.2164  53.6645 0001389  73.9742 286.1403 15.08835825136618,6917.893,95.438,540.719,538.797,0.0
51812.0,STARLINK-3610,PAYLOAD,2024-08-06 20:05:29,15.0884711,0.0001257,53.2154,52.1792,70.3913,289.7214,0.0014024,0.00022106,0.0,0 STARLINK-3610,1 51812U 22017AW  24219.83714821  .00022106  00000-0  14024-2 0  9995,2 51812  53.2154  52.1792 0001257  70.3913 289.7214 15.08847110136540,6917.859,95.437,540.593,538.854,0.0
51812.0,STARLINK-3610,PAYLOAD,2024-08-07 19:56:16,15.08869219,0.000161,53.216,47.7181,58.5697,301.5452,0.0011852,0.0001864,0.0,0 STARLINK-3610,1 51812U 22017AW  24220.83074207  .00018640  00000-0  11852-2 0  9998,2 51812  53.2160  47.7181 0001610  58.5697 301.5452 15.08869219136810,6917.791,95.436,540.77,538.542,0.0
51812.0,STARLINK-3610,PAYLOAD,2024-08-08 19:47:02,15.08858597,0.0001251,53.2151,43.2637,96.3531,263.7604,0.0011206,0.000176,0.0,0 STARLINK-3610,1 51812U 22017AW  24221.82433789  .00017600  00000-0  11206-2 0  9990,2 51812  53.2151  43.2637 0001251  96.3531 263.7604 15.08858597136966,6917.824,95.436,540.554,538.823,0.0
51812.0,STARLINK-3610,PAYLOAD,2024-08-08 21:22:25,15.08865796,0.0001232,53.2157,42.9611,94.7749,265.3384,0.0010619,0.00016664,0.0,0 STARLINK-3610,1 51812U 22017AW  24221.89057579  .00016664  00000-0  10619-2 0  9992,2 51812  53.2157  42.9611 0001232  94.7749 265.3384 15.08865796136852,6917.802,95.436,540.519,538.814,0.0
51812.0,STARLINK-3610,PAYLOAD,2024-08-09 11:40:54,15.08837319,0.0002306,53.2161,40.2866,71.0272,289.097,0.0011489,0.00018043,0.0,0 STARLINK-3610,1 51812U 22017AW  24222.48674394  .00018043  00000-0  11489-2 0  9997,2 51812  53.2161  40.2866 0002306  71.0272 289.0970 15.08837319137060,6917.889,95.438,541.349,538.158,0.0
51812.0,STARLINK-3610,PAYLOAD,2024-08-09 19:37:50,15.08852245,0.0001353,53.2159,38.7985,71.4862,288.6277,0.0016525,0.00026118,0.0,0 STARLINK-3610,1 51812U 22017AW  24222.81794094  .00026118  00000-0  16525-2 0  9992,2 51812  53.2159  38.7985 0001353  71.4862 288.6277 15.08852245136992,6917.843,95.437,540.644,538.772,0.0
51812.0,STARLINK-3610,PAYLOAD,2024-08-10 11:31:41,15.08846833,0.0001354,53.2164,35.8238,73.0668,287.0472,0.001134,0.00017809,0.0,0 STARLINK-3610,1 51812U 22017AW  24223.48034484  .00017809  00000-0  11340-2 0  9993,2 51812  53.2164  35.8238 0001354  73.0668 287.0472 15.08846833137212,6917.86,95.437,540.661,538.788,0.0
51812.0,STARLINK-3610,PAYLOAD,2024-08-10 17:53:14,15.08854557,0.0001277,53.2167,34.6341,72.621,287.4922,0.0015303,0.0002416,0.0,0 STARLINK-3610,1 51812U 22017AW  24223.74530336  .00024160  00000-0  15303-2 0  9990,2 51812  53.2167  34.6341 0001277  72.6210 287.4922 15.08854557137136,6917.836,95.437,540.584,538.817,0.0
51812.0,STARLINK-3610,PAYLOAD,2024-08-11 05:00:56,15.08855545,0.0001558,53.2163,32.556,59.7081,300.4065,0.00096874,0.0001517,0.0,0 STARLINK-3610,1 51812U 22017AW  24224.20898191  .00015170  00000-0  96874-3 0  9992,2 51812  53.2163  32.5560 0001558  59.7081 300.4065 15.08855545137329,6917.833,95.437,540.776,538.62,0.0
51812.0,STARLINK-3610,PAYLOAD,2024-08-11 17:44:00,15.08853664,0.0001665,53.218,30.175,85.5363,274.582,0.00053248,8.2e-05,0.0,0 STARLINK-3610,1 51812U 22017AW  24224.73890016  .00008200  00000-0  53248-3 0  9992,2 51812  53.2180  30.1750 0001665  85.5363 274.5820 15.08853664137401,6917.839,95.437,540.855,538.552,0.0
